[{"OBJECT_NAME":"STARLINK-31269","OBJECT_ID":"2024-017U","EPOCH":"2026-03-09T20:23:54.955104","MEAN_MOTION":15.30193278,"ECCENTRICITY":0.00010546,"INCLINATION":53.16,"RA_OF_ASC_NODE":293.7026,"ARG_OF_PERICENTER":88.451,"MEAN_ANOMALY":271.6611,"EPHEMERIS_TYPE":0,"CLASSIFICATION_TYPE":"U","NORAD_CAT_ID":58844,"ELEMENT_SET_NO":999,"REV_AT_EPOCH":11879,"BSTAR":1.0997138e-5,"MEAN_MOTION_DOT":-3.3e-7,"MEAN_MOTION_DDOT":0},{"OBJECT_NAME":"XCUBE-1","OBJECT_ID":"2024-247Z","EPOCH":"2026-03-09T11:35:28.885344","MEAN_MOTION":15.27910558,"ECCENTRICITY":0.00052355,"INCLINATION":44.9938,"RA_OF_ASC_NODE":117.7807,"ARG_OF_PERICENTER":331.1499,"MEAN_ANOMALY":28.9094,"EPHEMERIS_TYPE":0,"CLASSIFICATION_TYPE":"U","NORAD_CAT_ID":62400,"ELEMENT_SET_NO":999,"REV_AT_EPOCH":6770,"BSTAR":0.00036224252,"MEAN_MOTION_DOT":9.773e-5,"MEAN_MOTION_DDOT":0}]
